[
    {
        "Altitude(m)": 610405.3467666263,
        "Argument of Periapsis(deg)": 0.0,
        "Eccentricity": 0.0,
        "Inclination(deg)": 60.0,
        "Latitude(deg)": 52.11133705431301,
        "Longitude(deg)": 72.4773719580901,
        "Mean Anomaly(deg)": 114.54549999999999,
        "RAAN(deg)": 40.0,
        "Satellite Name": "Test1 183",
        "Satellite Number": 183,
        "Semi-Major Axis(m)": 6980739.136638005,
        "Time(s)": 0
    },
    {
        "Altitude(m)": 610321.9199926155,
        "Argument of Periapsis(deg)": 0.00010418945913296404,
        "Eccentricity": 0.0,
        "Inclination(deg)": 60.0,
        "Latitude(deg)": 51.746052511923814,
        "Longitude(deg)": 73.24626749813646,
        "Mean Anomaly(deg)": 115.16560614546184,
        "RAAN(deg)": 39.99957995086026,
        "Satellite Name": "Test1 183",
        "Satellite Number": 183,
        "Semi-Major Axis(m)": 6980739.136638005,
        "Time(s)": 10
    }
]